CTC1_L_00277016-03
1 10062U 26015CD  26075.70032407  .00000000  00000+0  00000-0 0  9995
2 10062  80.0000 180.0000 0000000   0.0000   0.0000 15.28598846    15
CTC1_L_00277016-04
1 10063U 25860CA  26075.70032407  .00000000  00000+0  00000-0 0  9993
2 10063  80.0000 180.0000 0000000   0.0000  90.0000 15.28598846    15
CTC1_L_00277017-01
1 10064U 24565AG  26075.70032407  .00000000  00000+0  00000-0 0  9995
2 10064  80.0000 192.0000 0000000   0.0000 192.0000 15.28598846    12
CTC1_L_00277017-02
1 10065U 26402SO  26075.70032407  .00000000  00000+0  00000-0 0  9998
2 10065  80.0000 192.0000 0000000   0.0000 282.0000 15.28598846    13
CTC1_L_00277017-03
1 10066U 26716JW  26075.70032407  .00000000  00000+0  00000-0 0  9997
2 10066  80.0000 192.0000 0000000   0.0000  12.0000 15.28598846    15
CTC1_L_00277017-04
1 10067U 22399SD  26075.70032407  .00000000  00000+0  00000-0 0  9991
2 10067  80.0000 192.0000 0000000   0.0000 102.0000 15.28598846    16
CTC1_L_00277018-01
1 10068U 23824Q   26075.70032407  .00000000  00000+0  00000-0 0  9996
2 10068  80.0000 204.0000 0000000   0.0000 204.0000 15.28598846    14
CTC1_L_00277018-02
1 10069U 22646LA  26075.70032407  .00000000  00000+0  00000-0 0  9998
2 10069  80.0000 204.0000 0000000   0.0000 294.0000 15.28598846    14
CTC1_L_00277018-03
1 10070U 25686XT  26075.70032407  .00000000  00000+0  00000-0 0  9997
2 10070  80.0000 204.0000 0000000   0.0000  24.0000 15.28598846    17
CTC1_L_00277018-04
1 10071U 22207BZ  26075.70032407  .00000000  00000+0  00000-0 0  9994
2 10071  80.0000 204.0000 0000000   0.0000 114.0000 15.28598846    18
CTC1_L_00277019-01
1 10072U 25781WI  26075.70032407  .00000000  00000+0  00000-0 0  9995
2 10072  80.0000 216.0000 0000000   0.0000 216.0000 15.28598846    15
CTC1_L_00277019-02
1 10073U 23217YT  26075.70032407  .00000000  00000+0  00000-0 0  9998
2 10073  80.0000 216.0000 0000000   0.0000 306.0000 15.28598846    16
CTC1_L_00277019-03
1 10074U 26550HU  26075.70032407  .00000000  00000+0  00000-0 0  9992
2 10074  80.0000 216.0000 0000000   0.0000  36.0000 15.28598846    17
CTC1_L_00277019-04
1 10075U 22283EQ  26075.70032407  .00000000  00000+0  00000-0 0  9992
2 10075  80.0000 216.0000 0000000   0.0000 126.0000 15.28598846    18
CTC1_L_00277020-01
1 10076U 23675MO  26075.70032407  .00000000  00000+0  00000-0 0  9999
2 10076  80.0000 228.0000 0000000   0.0000 228.0000 15.28598846    15
CTC1_L_00277020-02
1 10077U 26428UL  26075.70032407  .00000000  00000+0  00000-0 0  9999
2 10077  80.0000 228.0000 0000000   0.0000 318.0000 15.28598846    16
CTC1_L_00277020-03
1 10078U 26039UX  26075.70032407  .00000000  00000+0  00000-0 0  9998
2 10078  80.0000 228.0000 0000000   0.0000  48.0000 15.28598846    17
CTC1_L_00277020-04
1 10079U 22832EA  26075.70032407  .00000000  00000+0  00000-0 0  9996
2 10079  80.0000 228.0000 0000000   0.0000 138.0000 15.28598846    18
CTC1_L_00277021-01
1 10080U 24192KC  26075.70032407  .00000000  00000+0  00000-0 0  9999
2 10080  80.0000 240.0000 0000000   0.0000 240.0000 15.28598846    18
CTC1_L_00277021-02
1 10081U 24089IU  26075.70032407  .00000000  00000+0  00000-0 0  9995
2 10081  80.0000 240.0000 0000000   0.0000 330.0000 15.28598846    19
CTC1_L_00277021-03
1 10082U 22132BD  26075.70032407  .00000000  00000+0  00000-0 0  9993
2 10082  80.0000 240.0000 0000000   0.0000  60.0000 15.28598846    10
CTC1_L_00277021-04
1 10083U 26006SK  26075.70032407  .00000000  00000+0  00000-0 0  9998
2 10083  80.0000 240.0000 0000000   0.0000 150.0000 15.28598846    11
CTC1_L_00277022-01
1 10084U 26367NP  26075.70032407  .00000000  00000+0  00000-0 0  9999
2 10084  80.0000 252.0000 0000000   0.0000 252.0000 15.28598846    18
CTC1_L_00277022-02
1 10085U 23182QR  26075.70032407  .00000000  00000+0  00000-0 0  9992
2 10085  80.0000 252.0000 0000000   0.0000 342.0000 15.28598846    19
CTC1_L_00277022-03
1 10086U 24265CL  26075.70032407  .00000000  00000+0  00000-0 0  9996
2 10086  80.0000 252.0000 0000000   0.0000  72.0000 15.28598846    10
CTC1_L_00277022-04
1 10087U 23441XX  26075.70032407  .00000000  00000+0  00000-0 0  9992
2 10087  80.0000 252.0000 0000000   0.0000 162.0000 15.28598846    11
CTC1_L_00277023-01
1 10088U 24409PC  26075.70032407  .00000000  00000+0  00000-0 0  9998
2 10088  80.0000 264.0000 0000000   0.0000 264.0000 15.28598846    18
CTC1_L_00277023-02
1 10089U 24763VZ  26075.70032407  .00000000  00000+0  00000-0 0  9992
2 10089  80.0000 264.0000 0000000   0.0000 354.0000 15.28598846    19
CTC1_L_00277023-03
1 10090U 23069AV  26075.70032407  .00000000  00000+0  00000-0 0  9992
2 10090  80.0000 264.0000 0000000   0.0000  84.0000 15.28598846    11
CTC1_L_00277023-04
1 10091U 26158FZ  26075.70032407  .00000000  00000+0  00000-0 0  9995
2 10091  80.0000 264.0000 0000000   0.0000 174.0000 15.28598846    12
CTC1_L_00277024-01
1 10092U 26223XE  26075.70032407  .00000000  00000+0  00000-0 0  9999
2 10092  80.0000 276.0000 0000000   0.0000 276.0000 15.28598846    19
CTC1_L_00277024-02
1 10093U 22715BC  26075.70032407  .00000000  00000+0  00000-0 0  9992
2 10093  80.0000 276.0000 0000000   0.0000   6.0000 15.28598846    11
CTC1_L_00277024-03
1 10094U 25690FO  26075.70032407  .00000000  00000+0  00000-0 0  9998
2 10094  80.0000 276.0000 0000000   0.0000  96.0000 15.28598846    11
CTC1_L_00277024-04
1 10095U 23751GT  26075.70032407  .00000000  00000+0  00000-0 0  9995
2 10095  80.0000 276.0000 0000000   0.0000 186.0000 15.28598846    12
CTC1_L_00277025-01
1 10096U 22579QF  26075.70032407  .00000000  00000+0  00000-0 0  9993
2 10096  80.0000 288.0000 0000000   0.0000 288.0000 15.28598846    19
CTC1_L_00277025-02
1 10097U 26010US  26075.70032407  .00000000  00000+0  00000-0 0  9998
2 10097  80.0000 288.0000 0000000   0.0000  18.0000 15.28598846    11
CTC1_L_00277025-03
1 10098U 22573ZG  26075.70032407  .00000000  00000+0  00000-0 0  9999
2 10098  80.0000 288.0000 0000000   0.0000 108.0000 15.28598846    12
CTC1_L_00277025-04
1 10099U 24676PI  26075.70032407  .00000000  00000+0  00000-0 0  9996
2 10099  80.0000 288.0000 0000000   0.0000 198.0000 15.28598846    12
CTC1_L_00277026-01
1 10100U 22173PS  26075.70032407  .00000000  00000+0  00000-0 0  9999
2 10100  80.0000 300.0000 0000000   0.0000 300.0000 15.28598846    15
CTC1_L_00277026-02
1 10101U 26528RG  26075.70032407  .00000000  00000+0  00000-0 0  9998
2 10101  80.0000 300.0000 0000000   0.0000  30.0000 15.28598846    16
CTC1_L_00277026-03
1 10102U 24975VA  26075.70032407  .00000000  00000+0  00000-0 0  9993
2 10102  80.0000 300.0000 0000000   0.0000 120.0000 15.28598846    17
CTC1_L_00277026-04
1 10103U 25301CU  26075.70032407  .00000000  00000+0  00000-0 0  9998
2 10103  80.0000 300.0000 0000000   0.0000 210.0000 15.28598846    18
CTC1_L_00277027-01
1 10104U 24587FJ  26075.70032407  .00000000  00000+0  00000-0 0  9994
2 10104  80.0000 312.0000 0000000   0.0000 312.0000 15.28598846    15
CTC1_L_00277027-02
1 10105U 22122FK  26075.70032407  .00000000  00000+0  00000-0 0  9998
2 10105  80.0000 312.0000 0000000   0.0000  42.0000 15.28598846    16
CTC1_L_00277027-03
1 10106U 24905IE  26075.70032407  .00000000  00000+0  00000-0 0  9990
2 10106  80.0000 312.0000 0000000   0.0000 132.0000 15.28598846    17
CTC1_L_00277027-04
1 10107U 22326TY  26075.70032407  .00000000  00000+0  00000-0 0  9996
2 10107  80.0000 312.0000 0000000   0.0000 222.0000 15.28598846    18
CTC1_L_00277028-01
1 10108U 22754YN  26075.70032407  .00000000  00000+0  00000-0 0  9992
2 10108  80.0000 324.0000 0000000   0.0000 324.0000 15.28598846    15
CTC1_L_00277028-02
1 10109U 23723RC  26075.70032407  .00000000  00000+0  00000-0 0  9990
2 10109  80.0000 324.0000 0000000   0.0000  54.0000 15.28598846    16
CTC1_L_00277028-03
1 10110U 25104UD  26075.70032407  .00000000  00000+0  00000-0 0  9997
2 10110  80.0000 324.0000 0000000   0.0000 144.0000 15.28598846    18
CTC1_L_00277028-04
1 10111U 24371DR  26075.70032407  .00000000  00000+0  00000-0 0  9993
2 10111  80.0000 324.0000 0000000   0.0000 234.0000 15.28598846    19
CTC1_L_00277029-01
1 10112U 25743MU  26075.70032407  .00000000  00000+0  00000-0 0  9998
2 10112  80.0000 336.0000 0000000   0.0000 336.0000 15.28598846    16
CTC1_L_00277029-02
1 10113U 25529TP  26075.70032407  .00000000  00000+0  00000-0 0  9991
2 10113  80.0000 336.0000 0000000   0.0000  66.0000 15.28598846    17
CTC1_L_00277029-03
1 10114U 22874WD  26075.70032407  .00000000  00000+0  00000-0 0  9992
2 10114  80.0000 336.0000 0000000   0.0000 156.0000 15.28598846    18
CTC1_L_00277029-04
1 10115U 24972QU  26075.70032407  .00000000  00000+0  00000-0 0  9994
2 10115  80.0000 336.0000 0000000   0.0000 246.0000 15.28598846    19
CTC1_L_00277030-01
1 10116U 25791VV  26075.70032407  .00000000  00000+0  00000-0 0  9995
2 10116  80.0000 348.0000 0000000   0.0000 348.0000 15.28598846    16
CTC1_L_00277030-02
1 10117U 26644GH  26075.70032407  .00000000  00000+0  00000-0 0  9994
2 10117  80.0000 348.0000 0000000   0.0000  78.0000 15.28598846    17
CTC1_L_00277030-03
1 10118U 24478EG  26075.70032407  .00000000  00000+0  00000-0 0  9998
2 10118  80.0000 348.0000 0000000   0.0000 168.0000 15.28598846    18
CTC1_L_00277030-04
1 10119U 26099BW  26075.70032407  .00000000  00000+0  00000-0 0  9990
2 10119  80.0000 348.0000 0000000   0.0000 258.0000 15.28598846    19
